| satellites | [{"alt": 0, "country": "EU", "id": "31797", "inclination": 0, "line1": "1 31797U 07030A   26204.82461638  .00021438  00000+0  31946-3 0  9992", "line2": "2 31797  98.1058 313.9546 0005880 221.5673 138.5133 15.55121533 62629", "name": "SAR-LUPE 2", "type": "sar", "velocity": 0}, {"alt": 0, "country": "US", "id": "39088", "inclination": 0, "line1": "1 39088U 13009C   26204.83181851  .00000099  00000+0  49555-4 0  9999", "line2": "2 39088  98.4281  23.4211 0012054 135.6916 224.5237 14.35249392701834", "name": "SAPPHIRE", "type": "military", "velocity": 0}, {"alt": 0, "country": "US", "id": "65565", "inclination": 0, "line1": "1 65565U 25203A   26204.82200272  .00000090  00000+0  70061-4 0  9992", "line2": "2 65565  81.3053 336.8517 0007158  97.9825 262.2144 13.83889059 43768", "name": "PRAETORIAN SDA_602", "type": "military", "velocity": 0}, {"alt": 0, "country": "US", "id": "65566", "inclination": 0, "line1": "1 65566U 25203B   26204.34376022  .00000120  00000+0  97347-4 0  9997", "line2": "2 65566  81.3059 337.2154 0010790  94.8526 265.3862 13.83962424 43700", "name": "PRAETORIAN SDA_603", "type": "military", "velocity": 0}, {"alt": 0, "country": "US", "id": "65567", "inclination": 0, "line1": "1 65567U 25203C   26204.38669123  .00000107  00000+0  87356-4 0  9993", "line2": "2 65567  81.3075 337.6446 0006676 103.1117 257.0784 13.83051396 43680", "name": "PRAETORIAN SDA_604", "type": "military", "velocity": 0}, {"alt": 0, "country": "US", "id": "65568", "inclination": 0, "line1": "1 65568U 25203D   26204.77950419  .00000103  00000+0  82721-4 0  9995", "line2": "2 65568  81.3040 336.9172 0009352  92.9259 267.2967 13.83201456 43755", "name": "PRAETORIAN SDA_605", "type": "military", "velocity": 0}, {"alt": 0, "country": "US", "id": "65569", "inclination": 0, "line1": "1 65569U 25203E   26204.76468076  .00000072  00000+0  55015-4 0  9999", "line2": "2 65569  81.3077 337.1724 0007251  96.5880 263.6101 13.83200789 43745", "name": "PRAETORIAN SDA_606", "type": "military", "velocity": 0}, {"alt": 0, "country": "US", "id": "65570", "inclination": 0, "line1": "1 65570U 25203F   26204.31774528  .00000134  00000+0  11013-3 0  9992", "line2": "2 65570  81.3062 337.1972 0010055  95.1072 265.1232 13.83759288 43701", "name": "PRAETORIAN SDA_607", "type": "military", "velocity": 0}, {"alt": 0, "country": "US", "id": "65571", "inclination": 0, "line1": "1 65571U 25203G   26204.37221372  .00000106  00000+0  84740-4 0  9990", "line2": "2 65571  81.3028 337.3068 0007158 101.4808 258.7153 13.83820703 43699", "name": "PRAETORIAN SDA_608", "type": "military", "velocity": 0}, {"alt": 0, "country": "US", "id": "65572", "inclination": 0, "line1": "1 65572U 25203H   26204.80057498  .00000116  00000+0  93486-4 0  9993", "line2": "2 65572  81.3071 336.8868 0008029  95.3154 264.8918 13.84212465 43769", "name": "PRAETORIAN SDA_609", "type": "military", "velocity": 0}, {"alt": 0, "country": "US", "id": "65573", "inclination": 0, "line1": "1 65573U 25203J   26204.35583116  .00000099  00000+0  79416-4 0  9992", "line2": "2 65573  81.3032 337.2889 0007879 100.8739 259.3304 13.83529456 43698", "name": "PRAETORIAN SDA_610", "type": "military", "velocity": 0}, {"alt": 0, "country": "US", "id": "65574", "inclination": 0, "line1": "1 65574U 25203K   26204.80000384  .00000095  00000+0  75276-4 0  9990", "line2": "2 65574  81.3028 337.0633 0006823 104.3083 255.8832 13.83311590 43749", "name": "PRAETORIAN SDA_611", "type": "military", "velocity": 0}, {"alt": 0, "country": "US", "id": "65575", "inclination": 0, "line1": "1 65575U 25203L   26204.81616634  .00000141  00000+0  11412-3 0  9996", "line2": "2 65575  81.3050 336.5450 0010407  94.0050 266.2297 13.85042337 43785", "name": "PRAETORIAN SDA_612", "type": "military", "velocity": 0}, {"alt": 0, "country": "US", "id": "65576", "inclination": 0, "line1": "1 65576U 25203M   26204.82112906  .00000090  00000+0  71845-4 0  9991", "line2": "2 65576  81.3022 337.0693 0006836  95.5814 264.6121 13.82768817 43744", "name": "PRAETORIAN SDA_613", "type": "military", "velocity": 0}, {"alt": 0, "country": "US", "id": "65577", "inclination": 0, "line1": "1 65577U 25203N   26204.81226635  .00000069  00000+0  50339-4 0  9997", "line2": "2 65577  81.3036 336.6354 0008276  93.1332 267.0772 13.84779375 43784", "name": "PRAETORIAN SDA_614", "type": "military", "velocity": 0}, {"alt": 0, "country": "US", "id": "65578", "inclination": 0, "line1": "1 65578U 25203P   26204.79816153  .00000131  00000+0  10592-3 0  9991", "line2": "2 65578  81.3047 336.6351 0010195  93.1371 267.0952 13.84439261 43776", "name": "PRAETORIAN SDA_615", "type": "military", "velocity": 0}, {"alt": 0, "country": "US", "id": "65579", "inclination": 0, "line1": "1 65579U 25203Q   26204.80030558  .00000127  00000+0  10457-3 0  9996", "line2": "2 65579  81.3084 337.2325 0006705 102.7235 257.4671 13.83271050 43741", "name": "PRAETORIAN SDA_616", "type": "military", "velocity": 0}, {"alt": 0, "country": "US", "id": "65580", "inclination": 0, "line1": "1 65580U 25203R   26204.82503184  .00000056  00000+0  39834-4 0  9992", "line2": "2 65580  81.3060 337.0377 0008544  93.3727 266.8406 13.83152886 43752", "name": "PRAETORIAN SDA_617", "type": "military", "velocity": 0}, {"alt": 0, "country": "US", "id": "65581", "inclination": 0, "line1": "1 65581U 25203S   26204.33313816  .00000134  00000+0  10974-3 0  9990", "line2": "2 65581  81.3043 337.0008 0010952  97.1040 263.1363 13.84226547 43716", "name": "PRAETORIAN SDA_618", "type": "military", "velocity": 0}, {"alt": 0, "country": "US", "id": "65582", "inclination": 0, "line1": "1 65582U 25203T   26204.59992429  .00000140  00000+0  11520-3 0  9997", "line2": "2 65582  81.3066 337.0898 0009347  94.4135 265.8090 13.83806939 44366", "name": "PRAETORIAN SDA_619", "type": "military", "velocity": 0}, {"alt": 0, "country": "US", "id": "65583", "inclination": 0, "line1": "1 65583U 25203U   26204.34931514  .00000176  00000+0  14985-3 0  9996", "line2": "2 65583  81.3051 337.3598 0008660  92.5802 267.6346 13.83208757 43691", "name": "PRAETORIAN SDA_620", "type": "military", "velocity": 0}, {"alt": 0, "country": "US", "id": "65584", "inclination": 0, "line1": "1 65584U 25203V   26204.81868410  .00000085  00000+0  66236-4 0  9999", "line2": "2 65584  81.3043 336.8172 0008508  88.7122 271.5009 13.83804942 43764", "name": "PRAETORIAN SDA_621", "type": "military", "velocity": 0}, {"alt": 0, "country": "US", "id": "65585", "inclination": 0, "line1": "1 65585U 25203W   26204.80608573 -.00000056  00000+0 -61601-4 0  9992", "line2": "2 65585  81.3058 337.1671 0006761 105.2939 254.8964 13.83171192 43745", "name": "PRAETORIAN SDA_601", "type": "military", "velocity": 0}, {"alt": 0, "country": "EU", "id": "31598", "inclination": 0, "line1": "1 31598U 07023A   26204.82659356  .00003177  00000+0  27945-3 0  9993", "line2": "2 31598  97.8864  36.9939 0001924  92.2122 267.9320 14.97258074 35276", "name": "COSMO-SKYMED 1", "type": "sar", "velocity": 0}, {"alt": 0, "country": "EU", "id": "31698", "inclination": 0, "line1": "1 31698U 07026A   26203.49713428  .00000259  00000+0  15523-4 0  9998", "line2": "2 31698  97.4457 210.7016 0001796  80.1769 279.9668 15.19149840 58581", "name": "TERRASAR-X", "type": "sar", "velocity": 0}, {"alt": 0, "country": "US", "id": "32060", "inclination": 0, "line1": "1 32060U 07041A   26204.78743058  .00005516  00000+0  22640-3 0  9992", "line2": "2 32060  97.3901 324.0214 0002355 174.6972 185.4291 15.24631277 48458", "name": "WORLDVIEW-1 (WV-1)", "type": "optical", "velocity": 0}, {"alt": 0, "country": "CN", "id": "32289", "inclination": 0, "line1": "1 32289U 07055A   26204.84051988  .00002511  00000+0  26028-3 0  9997", "line2": "2 32289  97.8150 234.3563 0001538  86.7192 273.4202 14.90907173 11331", "name": "YAOGAN-3", "type": "sar", "velocity": 0}, {"alt": 0, "country": "EU", "id": "32376", "inclination": 0, "line1": "1 32376U 07059A   26204.81927631  .00000387  00000+0  55129-4 0  9996", "line2": "2 32376  97.8899  27.8881 0001481  93.9739 266.1643 14.82155877  7431", "name": "COSMO-SKYMED 2", "type": "sar", "velocity": 0}, {"alt": 0, "country": "IN", "id": "32783", "inclination": 0, "line1": "1 32783U 08021A   26204.84401157  .00000762  00000+0  10911-3 0  9997", "line2": "2 32783  97.7617 252.2977 0011722   0.4617 359.6604 14.79284670984223", "name": "CARTOSAT-2A", "type": "optical", "velocity": 0}, {"alt": 0, "country": "EU", "id": "33412", "inclination": 0, "line1": "1 33412U 08054A   26204.86012749  .00003134  00000+0  21215-3 0  9995", "line2": "2 33412  97.8255  64.0369 0016844 137.0955 223.1590 15.07158641962469", "name": "COSMO-SKYMED 3", "type": "sar", "velocity": 0}, {"alt": 0, "country": "CN", "id": "33446", "inclination": 0, "line1": "1 33446U 08061A   26204.52875061  .00000873  00000+0  11327-3 0  9997", "line2": "2 33446  97.9302 137.7723 0013219 317.1777  42.8406 14.83263303951058", "name": "YAOGAN-4", "type": "sar", "velocity": 0}, {"alt": 0, "country": "US", "id": "35946", "inclination": 0, "line1": "1 35946U 09055A   26204.83552628  .00000083  00000+0  41758-4 0  9998", "line2": "2 35946  98.4750 277.7860 0005555 109.3414 250.8374 14.37908760880911", "name": "WORLDVIEW-2 (WV-2)", "type": "optical", "velocity": 0}, {"alt": 0, "country": "CN", "id": "36110", "inclination": 0, "line1": "1 36110U 09069A   26204.64605994  .00000356  00000+0  56400-4 0  9994", "line2": "2 36110  98.0021  90.2797 0023158 282.6734  77.1888 14.78041121895019", "name": "YAOGAN-7", "type": "sar", "velocity": 0}, {"alt": 0, "country": "IN", "id": "36795", "inclination": 0, "line1": "1 36795U 10035A   26204.88188914  .00000056  00000+0  14810-4 0  9998", "line2": "2 36795  97.9936 255.1922 0012706  75.2779 284.9839 14.78656310865276", "name": "CARTOSAT-2B", "type": "optical", "velocity": 0}, {"alt": 0, "country": "CN", "id": "36834", "inclination": 0, "line1": "1 36834U 10038A   26204.87354344  .00001149  00000+0  13959-3 0  9992", "line2": "2 36834  97.8979 227.9857 0001632  84.8810  38.2674 14.85448658862656", "name": "YAOGAN-10", "type": "sar", "velocity": 0}, {"alt": 0, "country": "EU", "id": "37216", "inclination": 0, "line1": "1 37216U 10060A   26204.83194341  .00000455  00000+0  63689-4 0  9992", "line2": "2 37216  97.8906  27.9026 0001547  87.2428 272.8962 14.82157824849991", "name": "COSMO-SKYMED 4", "type": "sar", "velocity": 0}, {"alt": 0, "country": "TR", "id": "37791", "inclination": 0, "line1": "1 37791U 11044D   26204.85243838  .00000741  00000+0  13673-3 0  9996", "line2": "2 37791  98.0574 295.6903 0021970  77.1867  32.2166 14.68199978798568", "name": "RASAT", "type": "military", "velocity": 0}, {"alt": 0, "country": "EU", "id": "38012", "inclination": 0, "line1": "1 38012U 11076F   26204.83688905  .00000244  00000+0  62379-4 0  9990", "line2": "2 38012  98.1961 279.4445 0001575  77.3255  32.2280 14.58550245777335", "name": "PLEIADES 1A", "type": "optical", "velocity": 0}, {"alt": 0, "country": "CN", "id": "38038", "inclination": 0, "line1": "1 38038U 11079A   26204.88768723  .00000299  00000+0  11265-3 0  9990", "line2": "2 38038  98.4054 271.4261 0006221 186.2291 284.7281 14.38240595764489", "name": "ZIYUAN 1-02C (ZY 1-02C)", "type": "optical", "velocity": 0}, {"alt": 0, "country": "EU", "id": "39019", "inclination": 0, "line1": "1 39019U 12068A   26204.85008035  .00000179  00000+0  48408-4 0  9996", "line2": "2 39019  98.1932 279.3937 0001466  76.5991 283.5371 14.58537543726199", "name": "PLEIADES 1B", "type": "optical", "velocity": 0}, {"alt": 0, "country": "TR", "id": "39030", "inclination": 0, "line1": "1 39030U 12073A   26204.83503152  .00000590  00000+0  93474-4 0  9993", "line2": "2 39030  97.6818  40.4284 0001192 109.8777 250.2562 14.75573849729913", "name": "GOKTURK 2", "type": "military", "velocity": 0}, {"alt": 0, "country": "CN", "id": "39150", "inclination": 0, "line1": "1 39150U 13018A   26204.86092376  .00000314  00000+0  52236-4 0  9995", "line2": "2 39150  97.9079 276.1797 0017775 143.9740 216.2671 14.76525260713650", "name": "GAOFEN-1", "type": "optical", "velocity": 0}, {"alt": 0, "country": "US", "id": "39418", "inclination": 0, "line1": "1 39418U 13066C   26204.69659779  .00002918  00000+0  16737-3 0  9999", "line2": "2 39418  97.3797 252.9300 0021316 183.2165 176.8933 15.13149367694005", "name": "SKYSAT-A", "type": "optical", "velocity": 0}, {"alt": 0, "country": "EU", "id": "39634", "inclination": 0, "line1": "1 39634U 14016A   26204.71044689  .00000035  00000+0  17216-4 0  9998", "line2": "2 39634  98.1701 211.7058 0001398  88.9672 271.1688 14.59174326655346", "name": "SENTINEL-1A", "type": "military", "velocity": 0}, {"alt": 0, "country": "US", "id": "40072", "inclination": 0, "line1": "1 40072U 14037D   26204.83918674  .00001208  00000+0  13790-3 0  9991", "line2": "2 40072  98.3859 165.9005 0006150 146.8472 213.3130 14.88108065651418", "name": "SKYSAT-B", "type": "optical", "velocity": 0}, {"alt": 0, "country": "US", "id": "40115", "inclination": 0, "line1": "1 40115U 14048A   26204.82157712  .00000688  00000+0  86724-4 0  9997", "line2": "2 40115  97.8550 279.1465 0001903 142.2739 217.8610 14.85074303647346", "name": "WORLDVIEW-3 (WV-3)", "type": "optical", "velocity": 0}, {"alt": 0, "country": "CN", "id": "40118", "inclination": 0, "line1": "1 40118U 14049A   26204.86512399  .00000667  00000+0  93049-4 0  9996", "line2": "2 40118  98.0089 269.0335 0008681 110.7983 249.4160 14.80935318644664", "name": "GAOFEN-2", "type": "optical", "velocity": 0}, {"alt": 0, "country": "CN", "id": "40143", "inclination": 0, "line1": "1 40143U 14053A   26204.86842595  .00005166  00000+0  19844-3 0  9992", "line2": "2 40143  97.1462 243.5369 0006661 335.9239  24.1688 15.26841290660557", "name": "YAOGAN-21", "type": "sar", "velocity": 0}, {"alt": 0, "country": "CN", "id": "40275", "inclination": 0, "line1": "1 40275U 14063A   26204.38597753 -.00000007  00000+0  10482-3 0  9998", "line2": "2 40275 100.7772 356.2677 0006909 108.4376 251.7487 13.15531757564572", "name": "YAOGAN-22", "type": "sar", "velocity": 0}, {"alt": 0, "country": "CN", "id": "40310", "inclination": 0, "line1": "1 40310U 14072A   26204.82173516  .00001340  00000+0  20145-3 0  9991", "line2": "2 40310  98.1533 342.4741 0015254 142.8830 217.3437 14.76128981629121", "name": "YAOGAN-24", "type": "sar", "velocity": 0}, {"alt": 0, "country": "CN", "id": "40362", "inclination": 0, "line1": "1 40362U 14088A   26204.84865410  .00026594  00000+0  49683-3 0  9994", "line2": "2 40362  97.0656 204.2366 0001013 252.7191 107.3950 15.48729944643376", "name": "YAOGAN-26", "type": "sar", "velocity": 0}, {"alt": 0, "country": "KR", "id": "40536", "inclination": 0, "line1": "1 40536U 15014A   26204.85930256  .00036886  00000+0  49794-3 0  9997", "line2": "2 40536  97.6898 198.9566 0054815  45.0205 315.5472 15.55872387627519", "name": "KOMPSAT-3A", "type": "optical", "velocity": 0}, {"alt": 0, "country": "EU", "id": "40697", "inclination": 0, "line1": "1 40697U 15028A   26204.85806826 -.00000099  00000+0 -21125-4 0  9993", "line2": "2 40697  98.5670 279.1864 0001350  95.9931 264.1406 14.30815619578972", "name": "SENTINEL-2A", "type": "military", "velocity": 0}, {"alt": 0, "country": "CN", "id": "40701", "inclination": 0, "line1": "1 40701U 15030A   26204.83732118  .00029977  00000+0  58891-3 0  9995", "line2": "2 40701  97.6898  40.4410 0009563  69.3828 290.8445 15.47213925617110", "name": "GAOFEN-8", "type": "optical", "velocity": 0}, {"alt": 0, "country": "CN", "id": "40878", "inclination": 0, "line1": "1 40878U 15040A   26204.89863282 -.00000453  00000+0 -10813-2 0  9995", "line2": "2 40878 100.1183 189.6916 0008790 126.2943 233.8983 13.16071051522497", "name": "YAOGAN-27", "type": "sar", "velocity": 0}, {"alt": 0, "country": "CN", "id": "40894", "inclination": 0, "line1": "1 40894U 15047A   26204.83704538  .00000925  00000+0  11947-3 0  9994", "line2": "2 40894  97.6267 238.8645 0027816  23.0319 337.2135 14.82947842585621", "name": "GAOFEN-9 01", "type": "optical", "velocity": 0}, {"alt": 0, "country": "CN", "id": "41026", "inclination": 0, "line1": "1 41026U 15064A   26204.87314994  .00007770  00000+0  28788-3 0  9994", "line2": "2 41026  97.3112 342.4077 0011812  66.1273 294.1203 15.27847196596284", "name": "YAOGAN-28", "type": "sar", "velocity": 0}, {"alt": 0, "country": "CN", "id": "41038", "inclination": 0, "line1": "1 41038U 15069A   26204.88010073 -.00000234  00000+0 -22141-4 0  9992", "line2": "2 41038  98.0026 233.5685 0000077 142.3618 217.7601 14.83109215576066", "name": "YAOGAN-29", "type": "sar", "velocity": 0}, {"alt": 0, "country": "CN", "id": "41194", "inclination": 0, "line1": "1 41194U 15083A   26204.91841681 -.00000330  00000+0  00000+0 0  9993", "line2": "2 41194   0.4492  83.8410 0003863 121.0665 173.0523  1.00274242 38896", "name": "GAOFEN-4", "type": "optical", "velocity": 0}, {"alt": 0, "country": "EU", "id": "41335", "inclination": 0, "line1": "1 41335U 16011A   26204.82433404  .00000151  00000+0  80335-4 0  9996", "line2": "2 41335  98.6230 271.6781 0001287  86.8623 273.2705 14.26736224543284", "name": "SENTINEL-3A", "type": "military", "velocity": 0}, {"alt": 0, "country": "CN", "id": "41556", "inclination": 0, "line1": "1 41556U 16033A   26204.89165590  .00006391  00000+0  28915-3 0  9997", "line2": "2 41556  97.3822 279.9589 0013635 158.0300 202.1523 15.21169092563564", "name": "ZIYUAN 3-02 (ZY 3-02)", "type": "optical", "velocity": 0}, {"alt": 0, "country": "IN", "id": "41599", "inclination": 0, "line1": "1 41599U 16040A   26204.48330542  .00004010  00000+0  19304-3 0  9996", "line2": "2 41599  97.4464 263.9576 0008686  19.1280 341.0279 15.19310130559224", "name": "CARTOSAT-2C", "type": "optical", "velocity": 0}, {"alt": 0, "country": "US", "id": "41601", "inclination": 0, "line1": "1 41601U 16040C   26204.55422765  .00008608  00000+0  24102-3 0  9996", "line2": "2 41601  96.9557 234.3127 0001052 184.1507 175.9730 15.36853586563456", "name": "SKYSAT-C1", "type": "optical", "velocity": 0}, {"alt": 0, "country": "CN", "id": "41727", "inclination": 0, "line1": "1 41727U 16049A   26204.85427579 -.00000029  00000+0  42950-5 0  9998", "line2": "2 41727  98.4029 212.0876 0001777  82.3084 277.8307 14.42219020523939", "name": "GAOFEN-3", "type": "optical", "velocity": 0}, {"alt": 0, "country": "US", "id": "41771", "inclination": 0, "line1": "1 41771U 16058B   26204.50513755  .00017484  00000+0  31709-3 0  9991", "line2": "2 41771  96.9177 224.7807 0003569 107.7824 252.3818 15.49650272551093", "name": "SKYSAT-C4", "type": "optical", "velocity": 0}, {"alt": 0, "country": "US", "id": "41772", "inclination": 0, "line1": "1 41772U 16058C   26204.10558117  .00007252  00000+0  22409-3 0  9998", "line2": "2 41772  97.0456 243.1260 0003402 142.5858 217.5623 15.33797689549253", "name": "SKYSAT-C5", "type": "optical", "velocity": 0}, {"alt": 0, "country": "US", "id": "41773", "inclination": 0, "line1": "1 41773U 16058D   26204.32921844  .00012159  00000+0  27930-3 0  9990", "line2": "2 41773  97.0165 225.0801 0000661 273.3925  86.7248 15.42821230550625", "name": "SKYSAT-C2", "type": "optical", "velocity": 0}, {"alt": 0, "country": "US", "id": "41774", "inclination": 0, "line1": "1 41774U 16058E   26204.54179846  .00023979  00000+0  37171-3 0  9992", "line2": "2 41774  96.9002 234.0233 0002886 123.0560 237.0972 15.54002189551757", "name": "SKYSAT-C3", "type": "optical", "velocity": 0}, {"alt": 0, "country": "TR", "id": "41875", "inclination": 0, "line1": "1 41875U 16073A   26204.84156703  .00000428  00000+0  93100-4 0  9990", "line2": "2 41875  98.1200  98.9333 0001430  84.0563 276.0802 14.62797983514186", "name": "GOKTURK 1A", "type": "military", "velocity": 0}, {"alt": 0, "country": "IN", "id": "41948", "inclination": 0, "line1": "1 41948U 17008A   26204.44911100  .00003968  00000+0  19096-3 0  9999", "line2": "2 41948  97.4087 263.0730 0006506 117.0345 243.1554 15.19329256523087", "name": "CARTOSAT-2D", "type": "optical", "velocity": 0}, {"alt": 0, "country": "EU", "id": "42063", "inclination": 0, "line1": "1 42063U 17013A   26204.85087481 -.00000106  00000+0 -23985-4 0  9991", "line2": "2 42063  98.5677 279.1051 0001239  92.2066 267.9259 14.30816223489881", "name": "SENTINEL-2B", "type": "military", "velocity": 0}, {"alt": 0, "country": "IN", "id": "42767", "inclination": 0, "line1": "1 42767U 17036C   26204.59876079  .00004931  00000+0  23677-3 0  9992", "line2": "2 42767  97.4256 263.7967 0004182 159.7710 200.3691 15.19302949503671", "name": "CARTOSAT-2E", "type": "optical", "velocity": 0}, {"alt": 0, "country": "EU", "id": "42969", "inclination": 0, "line1": "1 42969U 17064A   26204.36112713  .00000031  00000+0  35683-4 0  9998", "line2": "2 42969  98.7929 146.2368 0001206  92.3775 267.7539 14.19524290454692", "name": "SENTINEL-5P", "type": "military", "velocity": 0}, {"alt": 0, "country": "US", "id": "42987", "inclination": 0, "line1": "1 42987U 17068A   26204.39086712  .00030498  00000+0  38262-3 0  9999", "line2": "2 42987  97.4380 354.8568 0001508 147.1025 213.0325 15.59689712488881", "name": "SKYSAT-C11", "type": "optical", "velocity": 0}, {"alt": 0, "country": "US", "id": "42988", "inclination": 0, "line1": "1 42988U 17068B   26204.79926669  .00009483  00000+0  27945-3 0  9994", "line2": "2 42988  97.4540 342.0280 0001562 110.3852 249.7559 15.35247695487978", "name": "SKYSAT-C10", "type": "optical", "velocity": 0}, {"alt": 0, "country": "US", "id": "42989", "inclination": 0, "line1": "1 42989U 17068C   26204.31978231  .00012642  00000+0  29466-3 0  9996", "line2": "2 42989  97.4460 342.8295 0007944  17.0072 343.1440 15.42362279488323", "name": "SKYSAT-C9", "type": "optical", "velocity": 0}, {"alt": 0, "country": "US", "id": "42990", "inclination": 0, "line1": "1 42990U 17068D   26204.32382802  .00010428  00000+0  28469-3 0  9994", "line2": "2 42990  97.4557 341.4865 0001312 107.4214 252.7174 15.37611067487868", "name": "SKYSAT-C8", "type": "optical", "velocity": 0}, {"alt": 0, "country": "US", "id": "42991", "inclination": 0, "line1": "1 42991U 17068E   26204.31857238  .00010274  00000+0  28091-3 0  9994", "line2": "2 42991  97.4568 342.4736 0004958 351.7605   8.3557 15.37559306487920", "name": "SKYSAT-C7", "type": "optical", "velocity": 0}, {"alt": 0, "country": "US", "id": "42992", "inclination": 0, "line1": "1 42992U 17068F   26204.80231610  .00008652  00000+0  26301-3 0  9998", "line2": "2 42992  97.4606 342.7790 0004765  67.6027 292.5720 15.34282201487938", "name": "SKYSAT-C6", "type": "optical", "velocity": 0}, {"alt": 0, "country": "IN", "id": "43111", "inclination": 0, "line1": "1 43111U 18004A   26204.89519852  .00004174  00000+0  20146-3 0  9995", "line2": "2 43111  97.4771 264.1663 0002853 119.6299 240.5220 15.19223248472904", "name": "CARTOSAT-2F", "type": "optical", "velocity": 0}, {"alt": 0, "country": "CN", "id": "43259", "inclination": 0, "line1": "1 43259U 18031A   26204.82688338  .00000716  00000+0  11027-3 0  9993", "line2": "2 43259  98.0508 267.2476 0001601 231.0158 129.0909 14.76480812448105", "name": "GAOFEN-1 02", "type": "optical", "velocity": 0}, {"alt": 0, "country": "CN", "id": "43260", "inclination": 0, "line1": "1 43260U 18031B   26204.87280463  .00000642  00000+0  99666-4 0  9991", "line2": "2 43260  98.0501 267.1475 0001718 346.7975  13.3190 14.76471568448103", "name": "GAOFEN-1 03", "type": "optical", "velocity": 0}, {"alt": 0, "country": "CN", "id": "43262", "inclination": 0, "line1": "1 43262U 18031D   26204.84861228  .00000167  00000+0  31433-4 0  9994", "line2": "2 43262  98.0509 267.3185 0000786  58.5313 301.5973 14.76444748448090", "name": "GAOFEN-1 04", "type": "optical", "velocity": 0}, {"alt": 0, "country": "EU", "id": "43437", "inclination": 0, "line1": "1 43437U 18039A   26204.44684152  .00000073  00000+0  48155-4 0  9996", "line2": "2 43437  98.6229 271.4552 0001317 117.9651 242.1662 14.26738084429299", "name": "SENTINEL-3B", "type": "military", "velocity": 0}, {"alt": 0, "country": "CN", "id": "43461", "inclination": 0, "line1": "1 43461U 18043A   26204.84867860  .00000276  00000+0  66747-4 0  9993", "line2": "2 43461  98.4599 177.2109 0001556  12.6635 347.4604 14.60627608437047", "name": "GAOFEN-5 01", "type": "optical", "velocity": 0}, {"alt": 0, "country": "CN", "id": "43484", "inclination": 0, "line1": "1 43484U 18048A   26204.87151633  .00000656  00000+0  10185-3 0  9996", "line2": "2 43484  98.0952 267.5933 0011882  57.3651 302.8703 14.76390947438806", "name": "GAOFEN-6", "type": "optical", "velocity": 0}, {"alt": 0, "country": "CN", "id": "43585", "inclination": 0, "line1": "1 43585U 18063A   26204.83475689  .00012807  00000+0  18365-3 0  9990", "line2": "2 43585  97.1271 271.6305 0004186 168.3194 191.8159 15.56270542446048", "name": "GAOFEN-11 01", "type": "optical", "velocity": 0}, {"alt": 0, "country": "CN", "id": "44622", "inclination": 0, "line1": "1 44622U 19066A   26204.85735361  .00001136  00000+0  14625-3 0  9993", "line2": "2 44622  98.0519 158.7073 0006355  29.2132 330.9436 14.83072011367811", "name": "GAOFEN-10R", "type": "optical", "velocity": 0}, {"alt": 0, "country": "IN", "id": "44804", "inclination": 0, "line1": "1 44804U 19081A   26204.84352670  .00002746  00000+0  13338-3 0  9997", "line2": "2 44804  97.4287 266.1151 0012218  31.5375 328.6589 15.19226073369037", "name": "CARTOSAT-3", "type": "optical", "velocity": 0}, {"alt": 0, "country": "CN", "id": "44819", "inclination": 0, "line1": "1 44819U 19082A   26204.84719193  .00000353  00000+0  52759-4 0  9994", "line2": "2 44819  97.8115 210.2613 0000627  78.3496 281.7787 14.80484793359517", "name": "GAOFEN-12 01", "type": "optical", "velocity": 0}, {"alt": 0, "country": "EU", "id": "46984", "inclination": 0, "line1": "1 46984U 20086A   26204.07848740 -.00000059  00000+0  90394-5 0  9993", "line2": "2 46984  66.0410  60.5060 0007779 269.6212  90.3912 12.80930280264925", "name": "SENTINEL-6A", "type": "military", "velocity": 0}, {"alt": 0, "country": "CN", "id": "48079", "inclination": 0, "line1": "1 48079U 21026A   26204.86220126  .00000342  00000+0  51750-4 0  9990", "line2": "2 48079  97.9947 202.8964 0006213 110.0484 250.1397 14.80321078287183", "name": "GAOFEN-12 02", "type": "optical", "velocity": 0}, {"alt": 0, "country": "EU", "id": "48268", "inclination": 0, "line1": "1 48268U 21034A   26204.51810853  .00001151  00000+0  15281-3 0  9990", "line2": "2 48268  97.8942 278.7624 0001349 101.3678 258.7687 14.81670344283035", "name": "PLEIADES NEO 3", "type": "optical", "velocity": 0}, {"alt": 0, "country": "EU", "id": "49070", "inclination": 0, "line1": "1 49070U 21073E   26204.68690250  .00001009  00000+0  13483-3 0  9994", "line2": "2 49070  97.8935 278.9245 0001392  97.5672 262.5698 14.81675971266776", "name": "PLEIADES NEO 4", "type": "optical", "velocity": 0}, {"alt": 0, "country": "CN", "id": "52912", "inclination": 0, "line1": "1 52912U 22069A   26204.83071903  .00000531  00000+0  76753-4 0  9993", "line2": "2 52912  97.8229  91.7690 0002259  63.3316 296.8127 14.80084327220039", "name": "GAOFEN-12 03", "type": "optical", "velocity": 0}, {"alt": 0, "country": "CN", "id": "57654", "inclination": 0, "line1": "1 57654U 23123A   26204.85215233  .00000919  00000+0  12895-3 0  9997", "line2": "2 57654  97.9098 122.3192 0003008  31.6588 328.4804 14.79787741158056", "name": "GAOFEN-12 04", "type": "optical", "velocity": 0}, {"alt": 0, "country": "EU", "id": "60989", "inclination": 0, "line1": "1 60989U 24157A   26204.67606258  .00000073  00000+0  44422-4 0  9994", "line2": "2 60989  98.5678 278.9391 0001057 109.0448 251.0850 14.30817474 98204", "name": "SENTINEL-2C", "type": "military", "velocity": 0}, {"alt": 0, "country": "EU", "id": "66514", "inclination": 0, "line1": "1 66514U 25264A   26204.31306307 -.00000058  00000+0  13065-4 0  9990", "line2": "2 66514  66.0410  60.1450 0007820 268.3435  91.6684 12.80930299 31792", "name": "SENTINEL-6B", "type": "military", "velocity": 0}] |
